[{"OBJECT_NAME":"STARLINK-35497","OBJECT_ID":"2025-245H","EPOCH":"2026-03-09T21:48:47.775456","MEAN_MOTION":15.3022131,"ECCENTRICITY":0.00010614,"INCLINATION":53.1589,"RA_OF_ASC_NODE":282.6277,"ARG_OF_PERICENTER":131.5036,"MEAN_ANOMALY":228.6056,"EPHEMERIS_TYPE":0,"CLASSIFICATION_TYPE":"U","NORAD_CAT_ID":66241,"ELEMENT_SET_NO":999,"REV_AT_EPOCH":2124,"BSTAR":0.0011578671,"MEAN_MOTION_DOT":0.00034114,"MEAN_MOTION_DDOT":0},{"OBJECT_NAME":"DMSP 5D-2 F13 DEB","OBJECT_ID":"1995-015HL","EPOCH":"2026-02-09T02:06:19.247328","MEAN_MOTION":15.12822218,"ECCENTRICITY":0.00117732,"INCLINATION":98.8603,"RA_OF_ASC_NODE":96.8879,"ARG_OF_PERICENTER":223.037,"MEAN_ANOMALY":136.9936,"EPHEMERIS_TYPE":0,"CLASSIFICATION_TYPE":"U","NORAD_CAT_ID":42294,"ELEMENT_SET_NO":999,"REV_AT_EPOCH":55633,"BSTAR":0.010466292,"MEAN_MOTION_DOT":0.00188804,"MEAN_MOTION_DDOT":0}]
